{
  "type": "FeatureCollection",
  "features": [
    {
      "type": "Feature",
      "properties": {
        "norad_id": 54259,
        "name": "EUTELSAT 10B",
        "group": "eutelsat",
        "lat": 0.02684247474129493,
        "lon": -125.39869958178237,
        "alt_km": 35785.93220733328,
        "timestamp": "2025-12-26T08:37:54.241462+00:00",
        "meta_object_name": "EUTELSAT 10B",
        "meta_object_id": "2022-157A",
        "meta_epoch": "2025-12-25T22:01:38.543808",
        "meta_mean_motion": 1.00270219,
        "meta_eccentricity": 6.65e-05,
        "meta_inclination": 0.0617,
        "meta_ra_of_asc_node": 95.4372,
        "meta_arg_of_pericenter": 60.6723,
        "meta_mean_anomaly": 278.9927,
        "meta_ephemeris_type": 0,
        "meta_classification_type": "U",
        "meta_norad_cat_id": 54259,
        "meta_element_set_no": 999,
        "meta_rev_at_epoch": 1128,
        "meta_bstar": 0,
        "meta_mean_motion_dot": 9e-07,
        "meta_mean_motion_ddot": 0,
        "tle_line1": "1 54259U 22157A   25359.91780722  .00000090  00000+0  00000+0 0  9999",
        "tle_line2": "2 54259   0.0617  95.4372 0000665  60.6723 278.9927  1.00270219 11280"
      },
      "geometry": {
        "type": "Point",
        "coordinates": [
          -125.39869958178237,
          0.02684247474129493
        ]
      }
    },
    {
      "type": "Feature",
      "properties": {
        "norad_id": 59346,
        "name": "EUTELSAT 36D",
        "group": "eutelsat",
        "lat": -0.025732729573613323,
        "lon": -99.54947848607432,
        "alt_km": 35788.63947839592,
        "timestamp": "2025-12-26T08:37:54.241473+00:00",
        "meta_object_name": "EUTELSAT 36D",
        "meta_object_id": "2024-059A",
        "meta_epoch": "2025-12-25T22:15:38.706912",
        "meta_mean_motion": 1.00265814,
        "meta_eccentricity": 3.451e-05,
        "meta_inclination": 0.0187,
        "meta_ra_of_asc_node": 46.0762,
        "meta_arg_of_pericenter": 344.367,
        "meta_mean_anomaly": 74.0358,
        "meta_ephemeris_type": 0,
        "meta_classification_type": "U",
        "meta_norad_cat_id": 59346,
        "meta_element_set_no": 999,
        "meta_rev_at_epoch": 641,
        "meta_bstar": 0,
        "meta_mean_motion_dot": 1.77e-06,
        "meta_mean_motion_ddot": 0,
        "tle_line1": "1 59346U 24059A   25359.92753133  .00000177  00000+0  00000+0 0  9997",
        "tle_line2": "2 59346   0.0187  46.0762 0000345 344.3670  74.0358  1.00265814  6414"
      },
      "geometry": {
        "type": "Point",
        "coordinates": [
          -99.54947848607432,
          -0.025732729573613323
        ]
      }
    }
  ]
}